CCSDS_OMM_VERS = 2.0
CREATION_DATE  = 
ORIGINATOR     = 

OBJECT_NAME    = PROGRESS-MS 32
OBJECT_ID      = 2025-204A
CENTER_NAME    = EARTH
REF_FRAME      = TEME
TIME_SYSTEM    = UTC
MEAN_ELEMENT_THEORY = SGP/SGP4

EPOCH          = 2025-11-06T22:29:32.805600
MEAN_MOTION    = 15.49804267
ECCENTRICITY   = .00051565
INCLINATION    = 51.6334
RA_OF_ASC_NODE = 319.7134
ARG_OF_PERICENTER = 25.1218
MEAN_ANOMALY   = 335.0021

EPHEMERIS_TYPE = 0
CLASSIFICATION_TYPE = U
NORAD_CAT_ID   = 65586
ELEMENT_SET_NO = 999
REV_AT_EPOCH   = 27
BSTAR          = .18425914E-3
MEAN_MOTION_DOT = .10004E-3
MEAN_MOTION_DDOT = 0

CCSDS_OMM_VERS = 2.0
CREATION_DATE  = 
ORIGINATOR     = 

OBJECT_NAME    = CYGNUS NG-23
OBJECT_ID      = 2025-208A
CENTER_NAME    = EARTH
REF_FRAME      = TEME
TIME_SYSTEM    = UTC
MEAN_ELEMENT_THEORY = SGP/SGP4

EPOCH          = 2025-11-06T22:29:32.805600
MEAN_MOTION    = 15.49804267
ECCENTRICITY   = .00051565
INCLINATION    = 51.6334
RA_OF_ASC_NODE = 319.7134
ARG_OF_PERICENTER = 25.1218
MEAN_ANOMALY   = 335.0021

EPHEMERIS_TYPE = 0
CLASSIFICATION_TYPE = U
NORAD_CAT_ID   = 65616
ELEMENT_SET_NO = 999
REV_AT_EPOCH   = 22
BSTAR          = .18425914E-3
MEAN_MOTION_DOT = .10004E-3
MEAN_MOTION_DDOT = 0

CCSDS_OMM_VERS = 2.0
CREATION_DATE  = 
ORIGINATOR     = 

OBJECT_NAME    = DRAGONFLY
OBJECT_ID      = 1998-067XH
CENTER_NAME    = EARTH
REF_FRAME      = TEME
TIME_SYSTEM    = UTC
MEAN_ELEMENT_THEORY = SGP/SGP4

EPOCH          = 2025-11-07T00:04:04.207872
MEAN_MOTION    = 15.60823840
ECCENTRICITY   = .0004104
INCLINATION    = 51.6306
RA_OF_ASC_NODE = 317.1565
ARG_OF_PERICENTER = 86.1801
MEAN_ANOMALY   = 273.9662

EPHEMERIS_TYPE = 0
CLASSIFICATION_TYPE = U
NORAD_CAT_ID   = 65729
ELEMENT_SET_NO = 999
REV_AT_EPOCH   = 756
BSTAR          = .10023E-2
MEAN_MOTION_DOT = .85684E-3
MEAN_MOTION_DDOT = 0

CCSDS_OMM_VERS = 2.0
CREATION_DATE  = 
ORIGINATOR     = 

OBJECT_NAME    = 1998-067XJ
OBJECT_ID      = 1998-067XJ
CENTER_NAME    = EARTH
REF_FRAME      = TEME
TIME_SYSTEM    = UTC
MEAN_ELEMENT_THEORY = SGP/SGP4

EPOCH          = 2025-11-06T07:19:08.410944
MEAN_MOTION    = 15.70599974
ECCENTRICITY   = .0011227
INCLINATION    = 51.6280
RA_OF_ASC_NODE = 319.2366
ARG_OF_PERICENTER = 66.4281
MEAN_ANOMALY   = 293.7894

EPHEMERIS_TYPE = 0
CLASSIFICATION_TYPE = U
NORAD_CAT_ID   = 65730
ELEMENT_SET_NO = 999
REV_AT_EPOCH   = 747
BSTAR          = .29815E-2
MEAN_MOTION_DOT = .394142E-2
MEAN_MOTION_DDOT = 0

CCSDS_OMM_VERS = 2.0
CREATION_DATE  = 
ORIGINATOR     = 

OBJECT_NAME    = 1998-067XK
OBJECT_ID      = 1998-067XK
CENTER_NAME    = EARTH
REF_FRAME      = TEME
TIME_SYSTEM    = UTC
MEAN_ELEMENT_THEORY = SGP/SGP4

EPOCH          = 2025-11-06T07:54:23.879520
MEAN_MOTION    = 15.58374630
ECCENTRICITY   = .00052165
INCLINATION    = 51.6331
RA_OF_ASC_NODE = 320.9110
ARG_OF_PERICENTER = 62.0844
MEAN_ANOMALY   = 298.0676

EPHEMERIS_TYPE = 0
CLASSIFICATION_TYPE = U
NORAD_CAT_ID   = 65731
ELEMENT_SET_NO = 999
REV_AT_EPOCH   = 745
BSTAR          = .11470149E-2
MEAN_MOTION_DOT = .89418E-3
MEAN_MOTION_DDOT = 0

CCSDS_OMM_VERS = 2.0
CREATION_DATE  = 
ORIGINATOR     = 

OBJECT_NAME    = RSP-03
OBJECT_ID      = 1998-067XL
CENTER_NAME    = EARTH
REF_FRAME      = TEME
TIME_SYSTEM    = UTC
MEAN_ELEMENT_THEORY = SGP/SGP4

EPOCH          = 2025-11-07T03:32:10.080096
MEAN_MOTION    = 15.59655081
ECCENTRICITY   = .0005896
INCLINATION    = 51.6309
RA_OF_ASC_NODE = 316.6200
ARG_OF_PERICENTER = 69.4939
MEAN_ANOMALY   = 290.6686

EPHEMERIS_TYPE = 0
CLASSIFICATION_TYPE = U
NORAD_CAT_ID   = 65732
ELEMENT_SET_NO = 999
REV_AT_EPOCH   = 759
BSTAR          = .96725E-3
MEAN_MOTION_DOT = .78997E-3
MEAN_MOTION_DDOT = 0

CCSDS_OMM_VERS = 2.0
CREATION_DATE  = 
ORIGINATOR     = 

OBJECT_NAME    = GHS-01
OBJECT_ID      = 1998-067XM
CENTER_NAME    = EARTH
REF_FRAME      = TEME
TIME_SYSTEM    = UTC
MEAN_ELEMENT_THEORY = SGP/SGP4

EPOCH          = 2025-11-07T04:24:48.572928
MEAN_MOTION    = 15.61696396
ECCENTRICITY   = .0004536
INCLINATION    = 51.6315
RA_OF_ASC_NODE = 316.1161
ARG_OF_PERICENTER = 85.7579
MEAN_ANOMALY   = 274.3933

EPHEMERIS_TYPE = 0
CLASSIFICATION_TYPE = U
NORAD_CAT_ID   = 65733
ELEMENT_SET_NO = 999
REV_AT_EPOCH   = 760
BSTAR          = .1136E-2
MEAN_MOTION_DOT = .100715E-2
MEAN_MOTION_DDOT = 0

CCSDS_OMM_VERS = 2.0
CREATION_DATE  = 
ORIGINATOR     = 

OBJECT_NAME    = YOTSUBA-KULOVER
OBJECT_ID      = 1998-067XN
CENTER_NAME    = EARTH
REF_FRAME      = TEME
TIME_SYSTEM    = UTC
MEAN_ELEMENT_THEORY = SGP/SGP4

EPOCH          = 2025-11-06T07:28:28.864416
MEAN_MOTION    = 15.53808670
ECCENTRICITY   = .00026285
INCLINATION    = 51.6323
RA_OF_ASC_NODE = 322.2864
ARG_OF_PERICENTER = 13.3948
MEAN_ANOMALY   = 346.7112

EPHEMERIS_TYPE = 0
CLASSIFICATION_TYPE = U
NORAD_CAT_ID   = 65941
ELEMENT_SET_NO = 999
REV_AT_EPOCH   = 418
BSTAR          = .10916774E-2
MEAN_MOTION_DOT = .71602E-3
MEAN_MOTION_DDOT = 0

CCSDS_OMM_VERS = 2.0
CREATION_DATE  = 
ORIGINATOR     = 

OBJECT_NAME    = BOTAN
OBJECT_ID      = 1998-067XP
CENTER_NAME    = EARTH
REF_FRAME      = TEME
TIME_SYSTEM    = UTC
MEAN_ELEMENT_THEORY = SGP/SGP4

EPOCH          = 2025-11-06T22:41:13.124256
MEAN_MOTION    = 15.54973125
ECCENTRICITY   = .00049677
INCLINATION    = 51.6322
RA_OF_ASC_NODE = 319.0210
ARG_OF_PERICENTER = 31.2909
MEAN_ANOMALY   = 328.8377

EPHEMERIS_TYPE = 0
CLASSIFICATION_TYPE = U
NORAD_CAT_ID   = 65942
ELEMENT_SET_NO = 999
REV_AT_EPOCH   = 428
BSTAR          = .96954947E-3
MEAN_MOTION_DOT = .66291E-3
MEAN_MOTION_DDOT = 0

CCSDS_OMM_VERS = 2.0
CREATION_DATE  = 
ORIGINATOR     = 

OBJECT_NAME    = E-KAGAKU-1
OBJECT_ID      = 1998-067XQ
CENTER_NAME    = EARTH
REF_FRAME      = TEME
TIME_SYSTEM    = UTC
MEAN_ELEMENT_THEORY = SGP/SGP4

EPOCH          = 2025-11-05T11:23:48.792192
MEAN_MOTION    = 15.53691300
ECCENTRICITY   = .00043857
INCLINATION    = 51.6326
RA_OF_ASC_NODE = 326.4510
ARG_OF_PERICENTER = 13.9907
MEAN_ANOMALY   = 346.1204

EPHEMERIS_TYPE = 0
CLASSIFICATION_TYPE = U
NORAD_CAT_ID   = 65943
ELEMENT_SET_NO = 999
REV_AT_EPOCH   = 405
BSTAR          = .85729517E-3
MEAN_MOTION_DOT = .55785E-3
MEAN_MOTION_DDOT = 0

CCSDS_OMM_VERS = 2.0
CREATION_DATE  = 
ORIGINATOR     = 

OBJECT_NAME    = HRC MONOBLOCK CAMERA
OBJECT_ID      = 1998-067XR
CENTER_NAME    = EARTH
REF_FRAME      = TEME
TIME_SYSTEM    = UTC
MEAN_ELEMENT_THEORY = SGP/SGP4

EPOCH          = 2025-11-06T12:58:34.395168
MEAN_MOTION    = 15.50961464
ECCENTRICITY   = .00045847
INCLINATION    = 51.6322
RA_OF_ASC_NODE = 321.5642
ARG_OF_PERICENTER = 35.8874
MEAN_ANOMALY   = 324.2423

EPHEMERIS_TYPE = 0
CLASSIFICATION_TYPE = U
NORAD_CAT_ID   = 66052
ELEMENT_SET_NO = 999
REV_AT_EPOCH   = 321
BSTAR          = .67448214E-3
MEAN_MOTION_DOT = .39579E-3
MEAN_MOTION_DDOT = 0

CCSDS_OMM_VERS = 2.0
CREATION_DATE  = 
ORIGINATOR     = 

OBJECT_NAME    = HTV-X1
OBJECT_ID      = 2025-241A
CENTER_NAME    = EARTH
REF_FRAME      = TEME
TIME_SYSTEM    = UTC
MEAN_ELEMENT_THEORY = SGP/SGP4

EPOCH          = 2025-11-06T22:29:32.805600
MEAN_MOTION    = 15.49804267
ECCENTRICITY   = .00051565
INCLINATION    = 51.6334
RA_OF_ASC_NODE = 319.7134
ARG_OF_PERICENTER = 25.1218
MEAN_ANOMALY   = 335.0021

EPHEMERIS_TYPE = 0
CLASSIFICATION_TYPE = U
NORAD_CAT_ID   = 66174
ELEMENT_SET_NO = 999
REV_AT_EPOCH   = 145
BSTAR          = .18425914E-3
MEAN_MOTION_DOT = .10004E-3
MEAN_MOTION_DDOT = 0

